{
    "links": {
        "self": "http://www.neowsapp.com/rest/v1/neo/3989243?api_key=iIulBulltgU6a56xZRHN4H3l9WmuAYTsLGpBGhQ2"
    },
    "id": "3989243",
    "neo_reference_id": "3989243",
    "name": "(2020 BO10)",
    "designation": "2020 BO10",
    "nasa_jpl_url": "http://ssd.jpl.nasa.gov/sbdb.cgi?sstr=3989243",
    "absolute_magnitude_h": 20.053,
    "estimated_diameter": {
        "kilometers": {
            "estimated_diameter_min": 0.2593910437,
            "estimated_diameter_max": 0.5800160065
        },
        "meters": {
            "estimated_diameter_min": 259.3910436981,
            "estimated_diameter_max": 580.0160064635
        },
        "miles": {
            "estimated_diameter_min": 0.1611780722,
            "estimated_diameter_max": 0.360405126
        },
        "feet": {
            "estimated_diameter_min": 851.0205118063,
            "estimated_diameter_max": 1902.9397146456
        }
    },
    "is_potentially_hazardous_asteroid": false,
    "close_approach_data": [
        {
            "close_approach_date": "2020-02-16",
            "close_approach_date_full": "2020-Feb-16 06:47",
            "epoch_date_close_approach": 1581835620000,
            "relative_velocity": {
                "kilometers_per_second": "28.1644368561",
                "kilometers_per_hour": "101391.9726820759",
                "miles_per_hour": "63001.0288034821"
            },
            "miss_distance": {
                "astronomical": "0.4205372972",
                "lunar": "163.5890086108",
                "kilometers": "62911483.916676964",
                "miles": "39091383.4142875432"
            },
            "orbiting_body": "Earth"
        }
    ],
    "orbital_data": {
        "orbit_id": "2",
        "orbit_determination_date": "2020-02-08 04:58:05",
        "first_observation_date": "2020-01-25",
        "last_observation_date": "2020-02-06",
        "data_arc_in_days": 12,
        "observations_used": 34,
        "orbit_uncertainty": "9",
        "minimum_orbit_intersection": ".138354",
        "jupiter_tisserand_invariant": "2.979",
        "epoch_osculation": "2458875.5",
        "eccentricity": ".6958946029486566",
        "semi_major_axis": "2.629480999118257",
        "inclination": "11.56162270631729",
        "ascending_node_longitude": "37.12846339081375",
        "orbital_period": "1557.411876565904",
        "perihelion_distance": ".7996393632758206",
        "perihelion_argument": "189.7158918509247",
        "aphelion_distance": "4.459322634960692",
        "perihelion_time": "2458932.908084820823",
        "mean_anomaly": "346.7299647277207",
        "mean_motion": ".2311527255036739",
        "equinox": "J2000",
        "orbit_class": {
            "orbit_class_type": "APO",
            "orbit_class_description": "Near-Earth asteroid orbits which cross the Earth’s orbit similar to that of 1862 Apollo",
            "orbit_class_range": "a (semi-major axis) > 1.0 AU; q (perihelion) < 1.017 AU"
        }
    },
    "is_sentry_object": false
}